{"fetched_at":"2026-07-13T18:16:41.643Z","source":"https://celestrak.org/NORAD/elements/gp.php?GROUP=stations&FORMAT=JSON","constellation":"crewed-vehicles","records":[{"OBJECT_NAME":"SOYUZ-MS 28","OBJECT_ID":"2025-275A","EPOCH":"2026-07-13T07:33:22.422240","CLASSIFICATION_TYPE":"U","MEAN_MOTION":15.48997295,"ECCENTRICITY":0.0006687,"INCLINATION":51.6305,"RA_OF_ASC_NODE":170.7871,"ARG_OF_PERICENTER":290.3592,"MEAN_ANOMALY":69.6678,"EPHEMERIS_TYPE":0,"NORAD_CAT_ID":66664,"ELEMENT_SET_NO":999,"REV_AT_EPOCH":64639,"BSTAR":0.000081266,"MEAN_MOTION_DOT":0.00004029,"MEAN_MOTION_DDOT":0},{"OBJECT_NAME":"CREW DRAGON 12","OBJECT_ID":"2026-031A","EPOCH":"2026-07-13T07:33:22.422240","CLASSIFICATION_TYPE":"U","MEAN_MOTION":15.48997295,"ECCENTRICITY":0.0006687,"INCLINATION":51.6305,"RA_OF_ASC_NODE":170.7871,"ARG_OF_PERICENTER":290.3592,"MEAN_ANOMALY":69.6678,"EPHEMERIS_TYPE":0,"NORAD_CAT_ID":67796,"ELEMENT_SET_NO":999,"REV_AT_EPOCH":62866,"BSTAR":0.000081266,"MEAN_MOTION_DOT":0.00004029,"MEAN_MOTION_DDOT":0},{"OBJECT_NAME":"SHENZHOU-23 (SZ-23)","OBJECT_ID":"2026-113A","EPOCH":"2026-07-12T07:55:55.916256","CLASSIFICATION_TYPE":"U","MEAN_MOTION":15.58035041,"ECCENTRICITY":0.00024282,"INCLINATION":41.4686,"RA_OF_ASC_NODE":169.1964,"ARG_OF_PERICENTER":290.9815,"MEAN_ANOMALY":69.0763,"EPHEMERIS_TYPE":0,"NORAD_CAT_ID":69180,"ELEMENT_SET_NO":999,"REV_AT_EPOCH":29605,"BSTAR":0.000014700842,"MEAN_MOTION_DOT":0.00000806,"MEAN_MOTION_DDOT":0}]}
