SOYUZ-MS 28             
1 66664U 25275A   26194.31484285  .00004029  00000+0  81266-4 0  9997
2 66664  51.6305 170.7871 0006687 290.3592  69.6678 15.48997295646397
CREW DRAGON 12          
1 67796U 26031A   26194.31484285  .00004029  00000+0  81266-4 0  9995
2 67796  51.6305 170.7871 0006687 290.3592  69.6678 15.48997295628664
SHENZHOU-23 (SZ-23)     
1 69180U 26113A   26193.33050829  .00000806  00000+0  14701-4 0  9998
2 69180  41.4686 169.1964 0002428 290.9815  69.0763 15.58035041296056
